[{"OBJECT_NAME":"ONEWEB-0177","OBJECT_ID":"2021-025AJ","EPOCH":"2026-03-09T18:17:38.971104","MEAN_MOTION":13.13469827,"ECCENTRICITY":0.00018914,"INCLINATION":87.9047,"RA_OF_ASC_NODE":339.9967,"ARG_OF_PERICENTER":74.876,"MEAN_ANOMALY":285.2578,"EPHEMERIS_TYPE":0,"CLASSIFICATION_TYPE":"U","NORAD_CAT_ID":48074,"ELEMENT_SET_NO":999,"REV_AT_EPOCH":24062,"BSTAR":-0.00025498381,"MEAN_MOTION_DOT":-8.0e-7,"MEAN_MOTION_DDOT":0},{"OBJECT_NAME":"NOAA 16 DEB","OBJECT_ID":"2000-055AF","EPOCH":"2026-03-09T22:40:03.781344","MEAN_MOTION":13.54721127,"ECCENTRICITY":0.02836476,"INCLINATION":98.841,"RA_OF_ASC_NODE":146.2091,"ARG_OF_PERICENTER":13.4372,"MEAN_ANOMALY":347.4124,"EPHEMERIS_TYPE":0,"CLASSIFICATION_TYPE":"U","NORAD_CAT_ID":41072,"ELEMENT_SET_NO":999,"REV_AT_EPOCH":50795,"BSTAR":0.00033894634,"MEAN_MOTION_DOT":2.63e-6,"MEAN_MOTION_DDOT":0}]
